{
  "type": "FeatureCollection",
  "features": [
    {
      "type": "Feature",
      "properties": {
        "norad_id": 57400,
        "name": "TIANMU-1 08",
        "group": "weather",
        "lat": 57.6799719457912,
        "lon": -129.08577110579748,
        "alt_km": 472.45028534656467,
        "timestamp": "2025-12-15T15:53:19.525370+00:00",
        "meta_object_name": "TIANMU-1 08",
        "meta_object_id": "2023-101B",
        "meta_epoch": "2025-12-14T22:04:18.769152",
        "meta_mean_motion": 15.28090564,
        "meta_eccentricity": 0.00074657,
        "meta_inclination": 97.287,
        "meta_ra_of_asc_node": 38.5191,
        "meta_arg_of_pericenter": 77.84,
        "meta_mean_anomaly": 282.3675,
        "meta_ephemeris_type": 0,
        "meta_classification_type": "U",
        "meta_norad_cat_id": 57400,
        "meta_element_set_no": 999,
        "meta_rev_at_epoch": 13348,
        "meta_bstar": 0.0001957708,
        "meta_mean_motion_dot": 5.293e-05,
        "meta_mean_motion_ddot": 0,
        "tle_line1": "1 57400U 23101B   25348.91966168  .00005293  00000+0  19577-3 0  9991",
        "tle_line2": "2 57400  97.2870  38.5191 0007465  77.8400 282.3675 15.28090564133488"
      },
      "geometry": {
        "type": "Point",
        "coordinates": [
          -129.08577110579748,
          57.6799719457912
        ]
      }
    },
    {
      "type": "Feature",
      "properties": {
        "norad_id": 57401,
        "name": "TIANMU-1 09",
        "group": "weather",
        "lat": -14.48473021944815,
        "lon": -143.13616702620897,
        "alt_km": 488.4332244677771,
        "timestamp": "2025-12-15T15:53:19.525381+00:00",
        "meta_object_name": "TIANMU-1 09",
        "meta_object_id": "2023-101C",
        "meta_epoch": "2025-12-14T23:19:30.954720",
        "meta_mean_motion": 15.28122125,
        "meta_eccentricity": 0.00067319,
        "meta_inclination": 97.2827,
        "meta_ra_of_asc_node": 38.0825,
        "meta_arg_of_pericenter": 77.673,
        "meta_mean_anomaly": 282.5263,
        "meta_ephemeris_type": 0,
        "meta_classification_type": "U",
        "meta_norad_cat_id": 57401,
        "meta_element_set_no": 999,
        "meta_rev_at_epoch": 13349,
        "meta_bstar": 0.00021275958,
        "meta_mean_motion_dot": 5.764e-05,
        "meta_mean_motion_ddot": 0,
        "tle_line1": "1 57401U 23101C   25348.97188605  .00005764  00000+0  21276-3 0  9992",
        "tle_line2": "2 57401  97.2827  38.0825 0006731  77.6730 282.5263 15.28122125133494"
      },
      "geometry": {
        "type": "Point",
        "coordinates": [
          -143.13616702620897,
          -14.48473021944815
        ]
      }
    },
    {
      "type": "Feature",
      "properties": {
        "norad_id": 57402,
        "name": "TIANMU-1 10",
        "group": "weather",
        "lat": 5.989614546125972,
        "lon": 38.8403137034144,
        "alt_km": 481.57453330818316,
        "timestamp": "2025-12-15T15:53:19.525390+00:00",
        "meta_object_name": "TIANMU-1 10",
        "meta_object_id": "2023-101D",
        "meta_epoch": "2025-12-14T22:34:30.387936",
        "meta_mean_motion": 15.28113181,
        "meta_eccentricity": 0.00084654,
        "meta_inclination": 97.2907,
        "meta_ra_of_asc_node": 38.9041,
        "meta_arg_of_pericenter": 77.114,
        "meta_mean_anomaly": 283.1045,
        "meta_ephemeris_type": 0,
        "meta_classification_type": "U",
        "meta_norad_cat_id": 57402,
        "meta_element_set_no": 999,
        "meta_rev_at_epoch": 13348,
        "meta_bstar": 0.00020675526,
        "meta_mean_motion_dot": 5.599e-05,
        "meta_mean_motion_ddot": 0,
        "tle_line1": "1 57402U 23101D   25348.94062949  .00005599  00000+0  20676-3 0  9991",
        "tle_line2": "2 57402  97.2907  38.9041 0008465  77.1140 283.1045 15.28113181133485"
      },
      "geometry": {
        "type": "Point",
        "coordinates": [
          38.8403137034144,
          5.989614546125972
        ]
      }
    },
    {
      "type": "Feature",
      "properties": {
        "norad_id": 57490,
        "name": "FENGYUN 3F",
        "group": "weather",
        "lat": -29.232787682035955,
        "lon": -127.01220903377593,
        "alt_km": 831.6795421131956,
        "timestamp": "2025-12-15T15:53:19.525399+00:00",
        "meta_object_name": "FENGYUN 3F",
        "meta_object_id": "2023-111A",
        "meta_epoch": "2025-12-14T23:41:03.139296",
        "meta_mean_motion": 14.19894119,
        "meta_eccentricity": 6.792e-05,
        "meta_inclination": 98.7081,
        "meta_ra_of_asc_node": 57.244,
        "meta_arg_of_pericenter": 106.2446,
        "meta_mean_anomaly": 253.8806,
        "meta_ephemeris_type": 0,
        "meta_classification_type": "U",
        "meta_norad_cat_id": 57490,
        "meta_element_set_no": 999,
        "meta_rev_at_epoch": 12272,
        "meta_bstar": 5.848067e-05,
        "meta_mean_motion_dot": 8.1e-07,
        "meta_mean_motion_ddot": 0,
        "tle_line1": "1 57490U 23111A   25348.98684189  .00000081  00000+0  58481-4 0  9996",
        "tle_line2": "2 57490  98.7081  57.2440 0000679 106.2446 253.8806 14.19894119122720"
      },
      "geometry": {
        "type": "Point",
        "coordinates": [
          -127.01220903377593,
          -29.232787682035955
        ]
      }
    },
    {
      "type": "Feature",
      "properties": {
        "norad_id": 58584,
        "name": "ARKTIKA-M 2",
        "group": "weather",
        "lat": 55.43430635641573,
        "lon": -52.5875660786349,
        "alt_km": 30978.863714778254,
        "timestamp": "2025-12-15T15:53:19.525410+00:00",
        "meta_object_name": "ARKTIKA-M 2",
        "meta_object_id": "2023-198A",
        "meta_epoch": "2025-12-08T20:10:13.977120",
        "meta_mean_motion": 2.0060476,
        "meta_eccentricity": 0.68646991,
        "meta_inclination": 63.2247,
        "meta_ra_of_asc_node": 175.3152,
        "meta_arg_of_pericenter": 268.1185,
        "meta_mean_anomaly": 18.8267,
        "meta_ephemeris_type": 0,
        "meta_classification_type": "U",
        "meta_norad_cat_id": 58584,
        "meta_element_set_no": 999,
        "meta_rev_at_epoch": 1450,
        "meta_bstar": 0,
        "meta_mean_motion_dot": 1.66e-06,
        "meta_mean_motion_ddot": 0,
        "tle_line1": "1 58584U 23198A   25342.84043955  .00000166  00000+0  00000+0 0  9998",
        "tle_line2": "2 58584  63.2247 175.3152 6864699 268.1185  18.8267  2.00604760 14506"
      },
      "geometry": {
        "type": "Point",
        "coordinates": [
          -52.5875660786349,
          55.43430635641573
        ]
      }
    },
    {
      "type": "Feature",
      "properties": {
        "norad_id": 58645,
        "name": "TIANMU-1 11",
        "group": "weather",
        "lat": 30.834184451353917,
        "lon": -166.33988232043393,
        "alt_km": 494.92249987080686,
        "timestamp": "2025-12-15T15:53:19.525422+00:00",
        "meta_object_name": "TIANMU-1 11",
        "meta_object_id": "2023-205A",
        "meta_epoch": "2025-12-14T23:29:10.276224",
        "meta_mean_motion": 15.24630549,
        "meta_eccentricity": 0.00077743,
        "meta_inclination": 97.3609,
        "meta_ra_of_asc_node": 8.5628,
        "meta_arg_of_pericenter": 301.168,
        "meta_mean_anomaly": 58.8795,
        "meta_ephemeris_type": 0,
        "meta_classification_type": "U",
        "meta_norad_cat_id": 58645,
        "meta_element_set_no": 999,
        "meta_rev_at_epoch": 10943,
        "meta_bstar": 0.00019613089,
        "meta_mean_motion_dot": 4.772e-05,
        "meta_mean_motion_ddot": 0,
        "tle_line1": "1 58645U 23205A   25348.97859116  .00004772  00000+0  19613-3 0  9990",
        "tle_line2": "2 58645  97.3609   8.5628 0007774 301.1680  58.8795 15.24630549109435"
      },
      "geometry": {
        "type": "Point",
        "coordinates": [
          -166.33988232043393,
          30.834184451353917
        ]
      }
    },
    {
      "type": "Feature",
      "properties": {
        "norad_id": 58646,
        "name": "TIANMU-1 12",
        "group": "weather",
        "lat": -0.24829566595205302,
        "lon": 9.070974281650498,
        "alt_km": 494.7366252138281,
        "timestamp": "2025-12-15T15:53:19.525431+00:00",
        "meta_object_name": "TIANMU-1 12",
        "meta_object_id": "2023-205B",
        "meta_epoch": "2025-12-15T00:08:13.402752",
        "meta_mean_motion": 15.24514296,
        "meta_eccentricity": 0.00057961,
        "meta_inclination": 97.3596,
        "meta_ra_of_asc_node": 8.3942,
        "meta_arg_of_pericenter": 281.0583,
        "meta_mean_anomaly": 79.0003,
        "meta_ephemeris_type": 0,
        "meta_classification_type": "U",
        "meta_norad_cat_id": 58646,
        "meta_element_set_no": 999,
        "meta_rev_at_epoch": 10942,
        "meta_bstar": 0.00021969922,
        "meta_mean_motion_dot": 5.334e-05,
        "meta_mean_motion_ddot": 0,
        "tle_line1": "1 58646U 23205B   25349.00571068  .00005334  00000+0  21970-3 0  9997",
        "tle_line2": "2 58646  97.3596   8.3942 0005796 281.0583  79.0003 15.24514296109424"
      },
      "geometry": {
        "type": "Point",
        "coordinates": [
          9.070974281650498,
          -0.24829566595205302
        ]
      }
    }
  ]
}